NORAD_CAT_ID,OBJECT_NAME,OBJECT_TYPE,EPOCH,MEAN_MOTION,ECCENTRICITY,INCLINATION,RA_OF_ASC_NODE,ARG_OF_PERICENTER,MEAN_ANOMALY,BSTAR,MEAN_MOTION_DOT,MEAN_MOTION_DDOT,TLE_LINE0,TLE_LINE1,TLE_LINE2,SEMIMAJOR_AXIS,PERIOD,APOGEE,PERIGEE,DECAYED
52361.0,STARLINK-3728,PAYLOAD,2022-09-10 14:00:01,15.08806786,0.0002185,53.2171,167.77599999999995,55.0732,96.2431,0.0027275,0.00043349,0.0,0 STARLINK-3728,1 52361U 22045AG  22253.58334491  .00043349  00000-0  27275-2 0  9999,2 52361  53.2171 167.7760 0002185  55.0732  96.2431 15.08806786 23133,6917.982,95.44,541.3580000000002,538.335,0.0
52361.0,STARLINK-3728,PAYLOAD,2022-09-10 22:00:00,15.08856335,0.0002275999999999,53.2172,166.2805,54.6631,108.219,-0.0038885999999999,-0.00061676,0.0,0 STARLINK-3728,1 52361U 22045AG  22253.91667824 -.00061676  00000-0 -38886-2 0  9990,2 52361  53.2172 166.2805 0002276  54.6631 108.2190 15.08856335  1308,6917.83,95.437,541.27,538.121,0.0
52361.0,STARLINK-3728,PAYLOAD,2022-09-11 06:00:00,15.08802734,0.0002334,53.217,164.7851,49.6198,124.8528,0.0028971,0.00046075,0.0,0 STARLINK-3728,1 52361U 22045AG  22254.25001157  .00046075  00000-0  28971-2 0  9997,2 52361  53.2170 164.7851 0002334  49.6198 124.8528 15.08802734 23236,6917.994000000002,95.44,541.474,538.245,0.0
52361.0,STARLINK-3728,PAYLOAD,2022-09-11 14:00:01,15.08811257,0.0002217,53.2171,163.287,53.7069,132.3456,0.003012,0.00047937,0.0,0 STARLINK-3728,1 52361U 22045AG  22254.58334491  .00047937  00000-0  30120-2 0  9990,2 52361  53.2171 163.2870 0002217  53.7069 132.3456 15.08811257  1303,6917.968000000003,95.439,541.367,538.3,0.0
52361.0,STARLINK-3728,PAYLOAD,2022-09-11 22:00:00,15.08863194,0.0002318,53.2172,161.7917,54.0974,143.5325,-0.0020508,-0.00032801,0.0,0 STARLINK-3728,1 52361U 22045AG  22254.91667824 -.00032801  00000-0 -20508-2 0  9991,2 52361  53.2172 161.7917 0002318  54.0974 143.5325 15.08863194 23333,6917.809,95.436,541.278,538.071,0.0
52361.0,STARLINK-3728,PAYLOAD,2022-09-12 12:00:00,15.08841234,0.0002189999999999,53.2174,159.1723,52.5588,75.3817,0.00027466,4.086e-05,0.0,0 STARLINK-3728,1 52361U 22045AG  22255.50001157  .00004086  00000-0  27466-3 0  9991,2 52361  53.2174 159.1723 0002190  52.5588  75.3817 15.08841234 23422,6917.877,95.437,541.257,538.227,0.0
52361.0,STARLINK-3728,PAYLOAD,2022-09-12 14:00:01,15.08833168,0.000216,53.2172,158.7979,53.4795,167.364,0.001318,0.00020746,0.0,0 STARLINK-3728,1 52361U 22045AG  22255.58334491  .00020746  00000-0  13180-2 0  9997,2 52361  53.2172 158.7979 0002160  53.4795 167.3640 15.08833168  1301,6917.901,95.438,541.261,538.2719999999998,0.0
52361.0,STARLINK-3728,PAYLOAD,2022-09-12 22:00:00,15.08844928,0.0002239,53.2173,157.3026,51.6582,180.7843,-0.00045251,-7.484e-05,0.0,0 STARLINK-3728,1 52361U 22045AG  22255.91667824 -.00007484  00000-0 -45251-3 0  9994,2 52361  53.2173 157.3026 0002239  51.6582 180.7843 15.08844928  1301,6917.865,95.437,541.279,538.181,0.0
52361.0,STARLINK-3728,PAYLOAD,2022-09-13 14:00:01,15.088188699999998,0.0001995,53.2172,154.3088,52.3408,203.3095,0.0024066,0.00038199,0.0,0 STARLINK-3728,1 52361U 22045AG  22256.58334491  .00038199  00000-0  24066-2 0  9994,2 52361  53.2172 154.3088 0001995  52.3408 203.3095 15.08818870  1306,6917.945,95.439,541.19,538.43,0.0
52361.0,STARLINK-3728,PAYLOAD,2022-09-13 16:00:00,15.08835025,0.0001988,53.2172,153.9343,53.4741,295.0681,0.00064426,9.979e-05,0.0,0 STARLINK-3728,1 52361U 22045AG  22256.66667824  .00009979  00000-0  64426-3 0  9991,2 52361  53.2172 153.9343 0001988  53.4741 295.0681 15.08835025 23594,6917.896,95.438,541.136,538.385,0.0
52361.0,STARLINK-3728,PAYLOAD,2022-09-13 22:00:00,15.08834317,0.0002085999999999,53.2173,152.8136,49.273,217.9541,-0.0015168,-0.00024344,0.0,0 STARLINK-3728,1 52361U 22045AG  22256.91667824 -.00024344  00000-0 -15168-2 0  9992,2 52361  53.2173 152.8136 0002086  49.2730 217.9541 15.08834317  1300,6917.898,95.438,541.206,538.32,0.0
52361.0,STARLINK-3728,PAYLOAD,2022-09-14 06:00:00,15.08828047,0.0002126999999999,53.2169,151.3176,45.5876,233.2138,0.0009601,0.0001501999999999,0.0,0 STARLINK-3728,1 52361U 22045AG  22257.25001157  .00015020  00000-0  96010-3 0  9996,2 52361  53.2169 151.3176 0002127  45.5876 233.2138 15.08828047 23680,6917.917,95.438,541.253,538.31,0.0
52361.0,STARLINK-3728,PAYLOAD,2022-09-14 14:00:01,15.08824326,0.0001925,53.217,149.8196,50.7403,239.6505,0.0010194,0.00015966,0.0,0 STARLINK-3728,1 52361U 22045AG  22257.58334491  .00015966  00000-0  10194-2 0  9999,2 52361  53.2170 149.8196 0001925  50.7403 239.6505 15.08824326  1304,6917.928000000001,95.439,541.125,538.462,0.0
52361.0,STARLINK-3728,PAYLOAD,2022-09-14 22:00:00,15.0883128,0.0001992,53.217,148.3246,47.5596,254.4167,-0.0010958,-0.00017682,0.0,0 STARLINK-3728,1 52361U 22045AG  22257.91667824 -.00017682  00000-0 -10958-2 0  9992,2 52361  53.2170 148.3246 0001992  47.5596 254.4167 15.08831280  1301,6917.906999999997,95.438,541.15,538.394,0.0
52361.0,STARLINK-3728,PAYLOAD,2022-09-15 14:00:01,15.08825236,0.0001831999999999,53.2166,145.3305,50.9929,274.1652,0.0030651,0.00048812,0.0,0 STARLINK-3728,1 52361U 22045AG  22258.58334491  .00048812  00000-0  30651-2 0  9996,2 52361  53.2166 145.3305 0001832  50.9929 274.1652 15.08825236  1302,6917.926,95.438,541.058,538.523,0.0
52361.0,STARLINK-3728,PAYLOAD,2022-09-15 18:55:26,15.08838336,0.0001854,53.2186,144.4098,49.37300000000001,310.7423,-2.1695e-05,-6.33e-06,0.0,0 STARLINK-3728,1 52361U 22045AG  22258.78849736 -.00000633  00000-0 -21695-4 0  9992,2 52361  53.2186 144.4098 0001854  49.3730 310.7423 15.08838336 23929,6917.885,95.438,541.033,538.4680000000002,0.0
52361.0,STARLINK-3728,PAYLOAD,2022-09-15 23:41:35,15.08835579,0.0002151999999999,53.219,143.5196,53.8467,306.2724,0.00015164,2.126e-05,0.0,0 STARLINK-3728,1 52361U 22045AG  22258.98721214  .00002126  00000-0  15164-3 0  9994,2 52361  53.2190 143.5196 0002152  53.8467 306.2724 15.08835579 23955,6917.894,95.438,541.248,538.27,0.0
52361.0,STARLINK-3728,PAYLOAD,2022-09-16 09:13:54,15.08829026,0.0001959,53.2186,141.7339,48.7066,311.4095,5.1979e-05,5.39e-06,0.0,0 STARLINK-3728,1 52361U 22045AG  22259.38466097  .00000539  00000-0  51979-4 0  9995,2 52361  53.2186 141.7339 0001959  48.7066 311.4095 15.08829026 24018,6917.9140000000025,95.438,541.134,538.424,0.0
52361.0,STARLINK-3728,PAYLOAD,2022-09-16 20:21:39,15.08804685,0.0001706,53.2191,139.6526,52.5519,307.5629,-0.00019526,-3.391e-05,0.0,0 STARLINK-3728,1 52361U 22045AG  22259.84837109 -.00003391  00000-0 -19526-3 0  9994,2 52361  53.2191 139.6526 0001706  52.5519 307.5629 15.08804685 24084,6917.988,95.44,541.034,538.673,0.0
52361.0,STARLINK-3728,PAYLOAD,2022-09-17 09:04:43,15.08823244,0.0001943999999999,53.2188,137.2754,52.304,307.8128,-2.5915e-05,-7.000000000000003e-06,0.0,0 STARLINK-3728,1 52361U 22045AG  22260.37828601 -.00000700  00000-0 -25915-4 0  9992,2 52361  53.2188 137.2754 0001944  52.3040 307.8128 15.08823244 24166,6917.932,95.439,541.141,538.452,0.0
52361.0,STARLINK-3728,PAYLOAD,2022-09-17 21:47:48,15.08833644,0.000202,53.2186,134.8961,50.3738,309.7432,-3.756e-05,-8.86e-06,0.0,0 STARLINK-3728,1 52361U 22045AG  22260.90820501 -.00000886  00000-0 -37560-4 0  9996,2 52361  53.2186 134.8961 0002020  50.3738 309.7432 15.08833644 24248,6917.9,95.438,541.1619999999998,538.367,0.0
52361.0,STARLINK-3728,PAYLOAD,2022-09-18 04:09:21,15.08838814,0.0002109999999999,53.2181,133.70600000000002,50.2307,309.887,1.085e-05,-1.16e-06,0.0,0 STARLINK-3728,1 52361U 22045AG  22261.17316189 -.00000116  00000-0  10850-4 0  9996,2 52361  53.2181 133.7060 0002110  50.2307 309.8870 15.08838814 24287,6917.884,95.438,541.2090000000002,538.289,0.0
52361.0,STARLINK-3728,PAYLOAD,2022-09-18 20:03:12,15.08830842,0.0001943,53.2184,130.7318,52.7723,307.3446,0.00030251,4.528e-05,0.0,0 STARLINK-3728,1 52361U 22045AG  22261.83555895  .00004528  00000-0  30251-3 0  9994,2 52361  53.2184 130.7318 0001943  52.7723 307.3446 15.08830842 24381,6917.908,95.438,541.118,538.429,0.0
52361.0,STARLINK-3728,PAYLOAD,2022-09-19 08:46:17,15.08830456,0.0002281,53.2182,128.3532,54.6938,305.4267,0.0005044,7.746e-05,0.0,0 STARLINK-3728,1 52361U 22045AG  22262.36547532  .00007746  00000-0  50440-3 0  9999,2 52361  53.2182 128.3532 0002281  54.6938 305.4267 15.08830456 24465,6917.91,95.438,541.3530000000002,538.197,0.0
52361.0,STARLINK-3728,PAYLOAD,2022-09-19 18:18:35,15.08848307,0.0002128,53.2179,126.5693,52.1428,307.9757,0.00010498,1.383e-05,0.0,0 STARLINK-3728,1 52361U 22045AG  22262.76291420  .00001383  00000-0  10498-3 0  9995,2 52361  53.2179 126.5693 0002128  52.1428 307.9757 15.08848307 24528,6917.855,95.437,541.192,538.248,0.0
52361.0,STARLINK-3728,PAYLOAD,2022-09-20 00:40:08,15.08850576,0.0001901,53.2182,125.3778,62.31100000000001,297.8075,6.3154e-05,7.17e-06,0.0,0 STARLINK-3728,1 52361U 22045AG  22263.02787151  .00000717  00000-0  63154-4 0  9994,2 52361  53.2182 125.3778 0001901  62.3110 297.8075 15.08850576 24567,6917.848000000001,95.437,541.028,538.398,0.0
52361.0,STARLINK-3728,PAYLOAD,2022-09-21 00:30:55,15.08844072,0.0001993,53.2182,120.9178,52.8711,307.2463,-0.00014474,-2.591e-05,0.0,0 STARLINK-3728,1 52361U 22045AG  22264.02147741 -.00002591  00000-0 -14474-3 0  9994,2 52361  53.2182 120.9178 0001993  52.8711 307.2463 15.08844072 24712,6917.868,95.437,541.112,538.354,0.0
52361.0,STARLINK-3728,PAYLOAD,2022-09-21 16:24:46,15.08836303,0.0001654,53.2174,117.9437,46.5137,313.5992,-3.4551e-05,-8.38e-06,0.0,0 STARLINK-3728,1 52361U 22045AG  22264.68387388 -.00000838  00000-0 -34551-4 0  9990,2 52361  53.2174 117.9437 0001654  46.5137 313.5992 15.08836303 24819,6917.892,95.438,540.901,538.612,0.0
52361.0,STARLINK-3728,PAYLOAD,2022-09-22 01:57:05,15.0884612,0.0002255999999999,53.2178,116.1622,49.4964,310.6224,-3.3067e-05,-8.15e-06,0.0,0 STARLINK-3728,1 52361U 22045AG  22265.08130834 -.00000815  00000-0 -33067-4 0  9993,2 52361  53.2178 116.1622 0002256  49.4964 310.6224 15.08846120 24879,6917.861999999999,95.437,541.2869999999998,538.1659999999998,0.0
